JAISAT-1                
1 44419U 19038F   24128.50300758  .00226920  00000+0  14680-2 0  9999
2 44419  97.6760 133.7239 0009510 169.9013 190.2444 15.75358121268751
DUCHIFAT-3              
1 44854U 19089C   24128.54693900  .00014719  00000+0  77827-3 0  9990
2 44854  36.9580 295.5057 0006491 105.5480 254.5984 15.14828228242033
M2 PATHFINDER           
1 45727U 20037E   24128.47892565  .00004115  00000+0  36471-3 0  9994
2 45727  97.7743 305.1437 0010415 258.3456 101.6597 14.96748335209854
NETSAT-4                
1 46504U 20068U   24128.44483218  .00012388  00000+0  68211-3 0  9998
2 46504  97.8035  84.5208 0011773 133.1804 227.0412 15.14122848198001
NETSAT-3                
1 46505U 20068V   24127.81973807  .00011728  00000+0  65551-3 0  9998
2 46505  97.8008  83.4378 0010651 142.1500 218.0482 15.13610922197904
NETSAT-1                
1 46506U 20068W   24128.48868434  .00008197  00000+0  47839-3 0  9997
2 46506  97.8034  83.6851 0009043 148.7565 211.4203 15.12178876197979
NETSAT-2                
1 46507U 20068X   24128.45953357  .00012326  00000+0  68079-3 0  9992
2 46507  97.8025  84.1817 0008440 150.4352 209.7357 15.14043123197958
WILDTRACKCUBE-SIMBA     
1 47941U 21022K   24128.51162671  .00012927  00000+0  60045-3 0  9996
2 47941  97.4660  25.6704 0013682 289.7224  70.2535 15.20052272172285
BEESAT-6                
1 47957U 21022AB  24127.69199230  .00137142  00000+0  20883-2 0  9994
2 47957  97.4463  33.9511 0004526 202.8028 157.3025 15.54013384172588
SMOG-1                  
1 47964U 21022AJ  24127.99034062  .00123335  00000+0  19424-2 0  9994
2 47964  97.4687  37.3481 0006252 194.6033 165.5041 15.53119873171813
BCCSAT-1                
1 48041U 21022AK  24127.69331801  .00063814  00000+0  14847-2 0  9998
2 48041  97.4675  33.6421 0005219 216.9049 143.1840 15.42070783171528
BEESAT-5                
1 48083U 21022AM  24127.99744656  .00208901  00000+0  22847-2 0  9990
2 48083  97.4209  35.3685 0005660 169.0768 191.0614 15.62610586171887
BEESAT-7                
1 48084U 21022AN  24127.96647026  .00069794  00000+0  12552-2 0  9998
2 48084  97.4637  34.4408 0005758 219.7078 140.3752 15.49589591171359
BEESAT-8                
1 48085U 21022AP  24127.46625263  .00030789  00000+0  10665-2 0  9998
2 48085  97.4793  29.1919 0009730 274.2899  85.7230 15.29748860171494
LEDSAT                  
1 49069U 21073D   24128.15178890  .00021124  00000+0  89098-3 0  9993
2 49069  97.4400 199.5991 0020781  71.5040 288.8452 15.23126622150207
SITRO-AIS 5 (KATYS)     
1 57176U 23091L   24128.48549561  .00007677  00000+0  50668-3 0  9994
2 57176  97.6166 181.0330 0016501 258.6430 101.2944 15.07615434 47367
SITRO-AIS 6 (CHIRKIN)   
1 57192U 23091AC  24128.47228682  .00007358  00000+0  48509-3 0  9996
2 57192  97.6164 181.0422 0016073 258.1894 101.7531 15.07676765 47369
SITRO-AIS 8 (ANOKHIN)   
1 57193U 23091AD  24128.51444319  .00007734  00000+0  50615-3 0  9998
2 57193  97.6153 181.1331 0016053 259.2095 100.7326 15.07932747 47378
SITRO-AIS 7 (FARTUSHNIY)
1 57194U 23091AE  24128.47615752  .00007532  00000+0  49704-3 0  9998
2 57194  97.6163 181.0313 0015988 258.8353 101.1077 15.07636812 47368
SITRO-AIS 10 (BURDAEV)  
1 57199U 23091AK  24128.46625853  .00008350  00000+0  52175-3 0  9990
2 57199  97.6177 181.8676 0011153 244.7786 115.2287 15.09662155 47418
SITRO-AIS 9 (SHCHUKIN)  
1 57201U 23091AM  24128.46421352  .00007826  00000+0  48946-3 0  9990
2 57201  97.6171 181.8497 0011118 244.6970 115.3107 15.09648286 47413
SITRO-AIS 12 (SMIRENNIY)
1 57204U 23091AQ  24128.49799651  .00009430  00000+0  58583-3 0  9997
2 57204  97.6177 181.9978 0011402 239.0575 120.9534 15.09832680 47422
SITRO-AIS 11 (SHEFFER)  
1 57208U 23091AU  24128.48587455  .00008901  00000+0  55210-3 0  9993
2 57208  97.6178 182.0040 0011144 238.9689 121.0447 15.09913427 47420
SITRO-AIS 29            
1 59052U 24039B   24128.52779419  .00021330  00000+0  83645-3 0  9997
2 59052  97.3900  90.9281 0018711   9.9304 350.2300 15.25610847 10398
SITRO-AIS 30            
1 59053U 24039C   24128.52703982  .00020885  00000+0  81857-3 0  9997
2 59053  97.3899  90.9266 0018859  10.5818 349.5813 15.25629473 10384
SITRO-AIS 31            
1 59054U 24039D   24128.52323386  .00022261  00000+0  86963-3 0  9997
2 59054  97.3899  90.9318 0018708  10.5232 349.6394 15.25728730 10400
SITRO-AIS 33            
1 59055U 24039E   24128.51864554  .00021785  00000+0  84831-3 0  9996
2 59055  97.3903  90.9401 0018494  11.4798 348.6858 15.25843538 10395
SITRO-AIS 35            
1 59056U 24039F   24128.51626924  .00022117  00000+0  86008-3 0  9992
2 59056  97.3901  90.9424 0018324  11.6437 348.5221 15.25888849 10390
SITRO-AIS 32            
1 59057U 24039G   24128.51907483  .00021164  00000+0  82527-3 0  9998
2 59057  97.3902  90.9390 0018287  11.7688 348.3974 15.25807545 10398
SITRO-AIS 34            
1 59058U 24039H   24128.51751877  .00021871  00000+0  85173-3 0  9998
2 59058  97.3903  90.9424 0018460  11.6062 348.5598 15.25841575 10391
SITRO-AIS 36            
1 59059U 24039J   24128.51343258  .00022447  00000+0  87151-3 0  9997
2 59059  97.3901  90.9465 0018059  11.9383 348.2279 15.25943994 10399
SITRO-AIS 49            
1 59060U 24039K   24128.51275623  .00021806  00000+0  84711-3 0  9996
2 59060  97.3902  90.9471 0018064  11.6438 348.5215 15.25931386 10398
SITRO-AIS 50            
1 59061U 24039L   24128.50889194  .00021645  00000+0  83717-3 0  9996
2 59061  97.3901  90.9521 0018007  12.0887 348.0780 15.26079400 10397
SITRO-AIS 51            
1 59062U 24039M   24128.31120778  .00028988  00000+0  11191-2 0  9995
2 59062  97.3900  90.7594 0017923  12.3795 347.7880 15.26082781 10362
SITRO-AIS 52            
1 59063U 24039N   24128.50442752  .00021195  00000+0  81767-3 0  9996
2 59063  97.3903  90.9583 0017741  11.8036 348.3615 15.26173778 10399
SITRO-AIS 25            
1 59066U 24039R   24128.50975299  .00005531  00000+0  53393-3 0  9996
2 59066  95.4022  69.8273 0175614 122.3984 239.4364 14.82087476 10085
SITRO-AIS 26            
1 59067U 24039S   24128.50903579  .00005359  00000+0  51764-3 0  9997
2 59067  95.4021  69.8275 0175443 122.4362 239.3962 14.82092497 10080
SITRO-AIS 27            
1 59068U 24039T   24128.50380419  .00005223  00000+0  50327-3 0  9994
2 59068  95.4023  69.8343 0175191 122.3096 239.5227 14.82218813 10080
SITRO-AIS 28            
1 59071U 24039U   24128.50222714  .00005239  00000+0  50459-3 0  9994
2 59071  95.4024  69.8364 0175057 122.3052 239.5258 14.82248766 10085
BEIJING 1               
1 28890U 05043A   24128.51458579  .00000618  00000+0  13186-3 0  9996
2 28890  98.1941 251.6821 0015208 168.9827 191.1710 14.62278210987954
HUANJING 1A (HJ-1A)     
1 33320U 08041A   24128.52670162  .00002017  00000+0  27394-3 0  9997
2 33320  97.6328 137.5531 0021465 140.5200 219.7581 14.79709100844347
HUANJING 1B (HJ-1B)     
1 33321U 08041B   24128.53959063  .00001471  00000+0  19829-3 0  9996
2 33321  97.6283 142.1065 0038316 186.5085 173.5635 14.80072823844362
YAOGAN-4                
1 33446U 08061A   24128.51882950  .00002031  00000+0  27741-3 0  9999
2 33446  97.8784  61.1791 0016537  61.5751 298.7125 14.79588825831549
DEIMOS-1                
1 35681U 09041A   24128.51341600  .00000950  00000+0  15431-3 0  9994
2 35681  97.6802 312.6205 0002391 124.6914 235.4520 14.73224958793328
UK-DMC 2                
1 35683U 09041C   24128.52053119  .00001404  00000+0  22516-3 0  9999
2 35683  97.7759 277.8569 0001259 103.2459 256.8890 14.73168799793020
DMC3-FM1                
1 40715U 15032A   24128.56366149  .00001087  00000+0  13825-3 0  9992
2 40715  97.7556   8.6598 0007235  71.0518 289.1480 14.83561571475552
DMC3-FM2                
1 40716U 15032B   24128.51924272  .00001122  00000+0  14237-3 0  9993
2 40716  97.7608   9.6588 0009171  73.9928 286.2296 14.83565589475543
DMC3-FM3                
1 40717U 15032C   24128.54238210  .00000883  00000+0  11357-3 0  9990
2 40717  97.7656  10.9355 0010615  70.7529 289.4833 14.83520046475553
NOAA 15                 
1 25338U 98030A   24128.55701905  .00000343  00000+0  16007-3 0  9996
2 25338  98.5718 156.5271 0011573  85.0408 275.2093 14.26559390351641
DMSP 5D-3 F16 (USA 172) 
1 28054U 03048A   24128.54365524  .00000180  00000+0  11861-3 0  9993
2 28054  99.0217 134.6308 0007597 159.4872 312.1401 14.14009699 60537
NOAA 18                 
1 28654U 05018A   24128.49801986  .00000346  00000+0  20826-3 0  9994
2 28654  98.8745 205.8002 0014537 174.3903 185.7434 14.13190954977510
METEOSAT-9 (MSG-2)      
1 28912U 05049B   24127.86861480  .00000126  00000+0  00000+0 0  9994
2 28912   7.5939  61.2069 0000596 331.7838 190.5908  1.00271170 67345
EWS-G1 (GOES 13)        
1 29155U 06018A   24127.22132751  .00000082  00000+0  00000+0 0  9994
2 29155   2.5173  85.7418 0084194 254.0034  13.9413  0.99113998 35614
DMSP 5D-3 F17 (USA 191) 
1 29522U 06050A   24128.51264423  .00000207  00000+0  13052-3 0  9997
2 29522  98.7454 139.9272 0011340  95.1964 265.0503 14.14457815903446
FENGYUN 3A              
1 32958U 08026A   24128.49105931  .00000203  00000+0  11730-3 0  9991
2 32958  98.6016  76.7934 0008502 182.6368 177.4765 14.19073612826180
FENGYUN 2E              
1 33463U 08066A   24127.81800358  .00000067  00000+0  00000+0 0  9999
2 33463   7.4918  60.8966 0002158  26.5053 297.0319  0.99118894 56351
NOAA 19                 
1 33591U 09005A   24128.51455010  .00000306  00000+0  18829-3 0  9992
2 33591  99.0501 183.8782 0014543  50.5856 309.6601 14.12990070785884
GOES 14                 
1 35491U 09033A   24128.22562631 -.00000065  00000+0  00000+0 0  9991
2 35491   0.2439 108.5124 0003429 323.3797 126.2253  1.00270024 54427
